{
  "type": "FeatureCollection",
  "features": [
    {
      "type": "Feature",
      "id": "ZONE_A",
      "properties": {
        "zone_id": "ZONE_A",
        "name": "Quesnel River West",
        "population": 420,
        "households": 168,
        "vulnerable_count": 38,
        "vehicle_access_score": 0.72
      },
      "geometry": {
        "type": "Polygon",
        "coordinates": [[[-121.895, 52.600], [-121.855, 52.600], [-121.855, 52.620], [-121.895, 52.620], [-121.895, 52.600]]]
      }
    },
    {
      "type": "Feature",
      "id": "ZONE_B",
      "properties": {
        "zone_id": "ZONE_B",
        "name": "Likely East Bench",
        "population": 610,
        "households": 244,
        "vulnerable_count": 71,
        "vehicle_access_score": 0.64
      },
      "geometry": {
        "type": "Polygon",
        "coordinates": [[[-121.678, 52.612], [-121.642, 52.612], [-121.642, 52.632], [-121.678, 52.632], [-121.678, 52.612]]]
      }
    },
    {
      "type": "Feature",
      "id": "ZONE_C",
      "properties": {
        "zone_id": "ZONE_C",
        "name": "Little Lake Clinic District",
        "population": 260,
        "households": 96,
        "vulnerable_count": 92,
        "vehicle_access_score": 0.28
      },
      "geometry": {
        "type": "Polygon",
        "coordinates": [[[-121.818, 52.626], [-121.782, 52.626], [-121.782, 52.646], [-121.818, 52.646], [-121.818, 52.626]]]
      }
    }
  ]
}
